OBJECT_NAME,OBJECT_ID,EPOCH,MEAN_MOTION,ECCENTRICITY,INCLINATION,RA_OF_ASC_NODE,ARG_OF_PERICENTER,MEAN_ANOMALY,EPHEMERIS_TYPE,CLASSIFICATION_TYPE,NORAD_CAT_ID,ELEMENT_SET_NO,REV_AT_EPOCH,BSTAR,MEAN_MOTION_DOT,MEAN_MOTION_DDOT
ONEWEB-0572,2023-004M,2026-06-24T06:39:49.501728,13.17648425,.00020174,87.9129,4.4546,94.0688,266.0674,0,U,55151,999,16841,.7673044E-5,.16E-6,0
ONEWEB-0573,2023-004N,2026-06-24T04:06:56.461248,13.18686247,.00024724,87.9169,334.0793,111.7304,248.4091,0,U,55152,999,17061,.31048164E-4,.25E-6,0
ONEWEB-0588,2023-004P,2026-06-24T03:57:14.184000,13.18685417,.00023757,87.9164,334.0806,93.5084,266.6320,0,U,55153,999,17061,.2378858E-3,.107E-5,0
ONEWEB-0598,2023-004Q,2026-06-24T06:08:26.720448,13.11415050,.00019804,87.8881,19.6611,109.0801,251.0541,0,U,55154,999,16682,.12430025E-2,.453E-5,0
ONEWEB-0599,2023-004R,2026-06-24T05:43:56.334144,13.17649088,.00016763,87.9130,4.4611,94.0116,266.1207,0,U,55155,999,16841,-.16289515E-3,-.5E-6,0
ONEWEB-0614,2023-004S,2026-06-24T02:21:23.002560,13.11415754,.00019796,87.8882,19.7015,81.6088,278.5264,0,U,55156,999,16674,.15886094E-2,.576E-5,0
ONEWEB-0616,2023-004T,2026-06-24T06:44:41.515584,13.17648776,.00009284,87.9134,4.4563,98.5506,261.5731,0,U,55157,999,16863,.15998572E-4,.19E-6,0
ONEWEB-0617,2023-004U,2026-06-24T02:04:17.209920,13.11425672,.00020298,87.8872,19.6940,74.4168,285.7184,0,U,55158,999,16676,.56079086E-2,.2001E-4,0
ONEWEB-0618,2023-004V,2026-06-24T06:24:34.823808,15.13182587,.00094242,86.9097,174.7605,265.4665,94.5498,0,U,55159,999,18333,.22680487E-3,.4058E-4,0
ONEWEB-0619,2023-004W,2026-06-24T05:41:30.926400,13.17649244,.00017936,87.9143,4.4462,75.8194,284.3137,0,U,55160,999,16852,-.17613492E-3,-.56E-6,0
ONEWEB-0620,2023-004X,2026-06-24T01:56:57.505632,13.11417331,.00019754,87.8882,19.7045,93.2998,266.8356,0,U,55161,999,16673,.51743784E-3,.196E-5,0
ONEWEB-0621,2023-004Y,2026-06-24T06:15:45.793152,13.11414347,.00019703,87.8890,19.6580,81.2670,278.8681,0,U,55162,999,16673,.84604211E-3,.313E-5,0
ONEWEB-0622,2023-004Z,2026-06-24T06:23:05.271072,13.11414092,.0002547,87.8890,19.6595,84.1431,275.9988,0,U,55163,999,16672,.40545963E-3,.156E-5,0
ONEWEB-0623,2023-004AA,2026-06-24T05:34:12.368640,13.17650003,.00023628,87.9130,4.4766,72.8879,287.2512,0,U,55164,999,16851,.12780738E-3,.63E-6,0
ONEWEB-0624,2023-004AB,2026-06-24T04:56:48.501024,13.12928716,.00018644,87.8946,349.1878,88.7005,271.4337,0,U,55165,999,16899,-.95906171E-3,-.335E-5,0
ONEWEB-0625,2023-004AC,2026-06-24T05:19:38.625312,13.17650075,.00016901,87.9132,4.4745,88.5573,271.5752,0,U,55166,999,16850,.10078315E-3,.52E-6,0
ONEWEB-0626,2023-004AD,2026-06-24T01:26:22.038720,13.17657805,.00020302,87.9132,4.5063,100.9475,259.1885,0,U,55167,999,16848,.16572378E-3,.77E-6,0
ONEWEB-0627,2023-004AE,2026-06-24T06:37:23.865888,13.17648531,.00021664,87.9131,4.4639,77.9421,282.1953,0,U,55168,999,16851,.27702239E-3,.12E-5,0
ONEWEB-0628,2023-004AF,2026-06-24T04:33:47.147328,13.12440971,.00021506,87.8949,349.2599,74.7514,285.3852,0,U,55169,999,16895,-.3884267E-3,-.127E-5,0
ONEWEB-0629,2023-004AG,2026-06-24T00:34:06.843648,13.17648251,.00017757,87.9131,4.5100,79.6452,280.4880,0,U,55170,999,16848,.87638683E-4,.47E-6,0
ONEWEB-0631,2023-004AH,2026-06-24T03:47:31.455744,13.18685573,.00023533,87.9177,334.0486,99.5087,260.6311,0,U,55171,999,17059,.2568522E-5,.14E-6,0
ONEWEB-0709,2023-004AJ,2026-06-24T01:42:18.465984,13.11418508,.00020671,87.8881,19.7086,112.4694,247.6653,0,U,55172,999,16677,-.62635743E-3,-.209E-5,0
ONEWEB-0710,2023-004AK,2026-06-24T06:22:48.458496,13.17649694,.00020093,87.9129,4.4573,87.1911,272.9451,0,U,55173,999,16851,-.28523171E-4,.2E-7,0
ONEWEB-0711,2023-004AL,2026-06-24T06:30:24.473376,13.11414068,.00024387,87.8884,19.6561,76.7556,283.3844,0,U,55174,999,16676,-.36518299E-3,-.117E-5,0
ONEWEB-0713,2023-004AM,2026-06-24T03:17:31.551936,13.11417518,.00021664,87.8884,19.6848,81.1671,278.9702,0,U,55175,999,16673,-.12732372E-2,-.439E-5,0
ONEWEB-0715,2023-004AN,2026-06-24T06:49:55.392960,13.11415488,.00022402,87.8889,19.6555,102.6615,257.4764,0,U,55176,999,16679,-.16051484E-2,-.556E-5,0
ONEWEB-0716,2023-004AP,2026-06-24T00:45:02.493504,13.17650316,.00016021,87.9131,4.5065,89.7392,270.3923,0,U,55177,999,16848,.18350651E-3,.84E-6,0
ONEWEB-0717,2023-004AQ,2026-06-24T05:48:48.172608,13.17648758,.00024269,87.9145,4.4525,85.5657,274.5751,0,U,55178,999,16856,-.1553835E-3,-.47E-6,0
ONEWEB-0719,2023-004AR,2026-06-24T06:03:23.050368,13.17649330,.00017106,87.9139,4.4311,85.5535,274.5792,0,U,55179,999,16851,.93795586E-4,.49E-6,0
ONEWEB-0530,2023-029A,2026-06-24T05:03:56.790144,13.20772009,.0002231,87.9186,273.0688,89.0693,271.0696,0,U,55796,999,16207,.14292227E-3,.71E-6,0
