ONEWEB-0572             
1 55151U 23004M   26175.27765627  .00000016  00000+0  76730-5 0  9993
2 55151  87.9129   4.4546 0002017  94.0688 266.0674 13.17648425168415
ONEWEB-0573             
1 55152U 23004N   26175.17148682  .00000025  00000+0  31048-4 0  9991
2 55152  87.9169 334.0793 0002472 111.7304 248.4091 13.18686247170610
ONEWEB-0588             
1 55153U 23004P   26175.16474750  .00000107  00000+0  23789-3 0  9992
2 55153  87.9164 334.0806 0002375  93.5084 266.6320 13.18685417170610
ONEWEB-0598             
1 55154U 23004Q   26175.25586482  .00000453  00000+0  12430-2 0  9993
2 55154  87.8881  19.6611 0001980 109.0801 251.0541 13.11415050166825
ONEWEB-0599             
1 55155U 23004R   26175.23884646 -.00000050  00000+0 -16290-3 0  9999
2 55155  87.9130   4.4611 0001676  94.0116 266.1207 13.17649088168419
ONEWEB-0614             
1 55156U 23004S   26175.09818290  .00000576  00000+0  15886-2 0  9996
2 55156  87.8882  19.7015 0001979  81.6088 278.5264 13.11415754166745
ONEWEB-0616             
1 55157U 23004T   26175.28103606  .00000019  00000+0  15999-4 0  9995
2 55157  87.9134   4.4563 0000928  98.5506 261.5731 13.17648776168630
ONEWEB-0617             
1 55158U 23004U   26175.08631030  .00002001  00000+0  56079-2 0  9996
2 55158  87.8872  19.6940 0002029  74.4168 285.7184 13.11425672166761
ONEWEB-0618             
1 55159U 23004V   26175.26706972  .00004058  00000+0  22680-3 0  9991
2 55159  86.9097 174.7605 0009424 265.4665  94.5498 15.13182587183337
ONEWEB-0619             
1 55160U 23004W   26175.23716350 -.00000056  00000+0 -17613-3 0  9997
2 55160  87.9143   4.4462 0001793  75.8194 284.3137 13.17649244168526
ONEWEB-0620             
1 55161U 23004X   26175.08122113  .00000196  00000+0  51744-3 0  9995
2 55161  87.8882  19.7045 0001975  93.2998 266.8356 13.11417331166733
ONEWEB-0621             
1 55162U 23004Y   26175.26094668  .00000313  00000+0  84604-3 0  9991
2 55162  87.8890  19.6580 0001970  81.2670 278.8681 13.11414347166733
ONEWEB-0622             
1 55163U 23004Z   26175.26603323  .00000156  00000+0  40546-3 0  9998
2 55163  87.8890  19.6595 0002547  84.1431 275.9988 13.11414092166722
ONEWEB-0623             
1 55164U 23004AA  26175.23208760  .00000063  00000+0  12781-3 0  9999
2 55164  87.9130   4.4766 0002362  72.8879 287.2512 13.17650003168516
ONEWEB-0624             
1 55165U 23004AB  26175.20611691 -.00000335  00000+0 -95906-3 0  9992
2 55165  87.8946 349.1878 0001864  88.7005 271.4337 13.12928716168993
ONEWEB-0625             
1 55166U 23004AC  26175.22197483  .00000052  00000+0  10078-3 0  9994
2 55166  87.9132   4.4745 0001690  88.5573 271.5752 13.17650075168505
ONEWEB-0626             
1 55167U 23004AD  26175.05997730  .00000077  00000+0  16572-3 0  9991
2 55167  87.9132   4.5063 0002030 100.9475 259.1885 13.17657805168483
ONEWEB-0627             
1 55168U 23004AE  26175.27597067  .00000120  00000+0  27702-3 0  9991
2 55168  87.9131   4.4639 0002166  77.9421 282.1953 13.17648531168517
ONEWEB-0628             
1 55169U 23004AF  26175.19012902 -.00000127  00000+0 -38843-3 0  9990
2 55169  87.8949 349.2599 0002150  74.7514 285.3852 13.12440971168954
ONEWEB-0629             
1 55170U 23004AG  26175.02369032  .00000047  00000+0  87639-4 0  9990
2 55170  87.9131   4.5100 0001775  79.6452 280.4880 13.17648251168487
ONEWEB-0631             
1 55171U 23004AH  26175.15800296  .00000014  00000+0  25685-5 0  9995
2 55171  87.9177 334.0486 0002353  99.5087 260.6311 13.18685573170597
ONEWEB-0709             
1 55172U 23004AJ  26175.07104706 -.00000209  00000+0 -62636-3 0  9993
2 55172  87.8881  19.7086 0002067 112.4694 247.6653 13.11418508166777
ONEWEB-0710             
1 55173U 23004AK  26175.26583864  .00000002  00000+0 -28523-4 0  9999
2 55173  87.9129   4.4573 0002009  87.1911 272.9451 13.17649694168511
ONEWEB-0711             
1 55174U 23004AL  26175.27111659 -.00000117  00000+0 -36518-3 0  9990
2 55174  87.8884  19.6561 0002438  76.7556 283.3844 13.11414068166765
ONEWEB-0713             
1 55175U 23004AM  26175.13717074 -.00000439  00000+0 -12732-2 0  9997
2 55175  87.8884  19.6848 0002166  81.1671 278.9702 13.11417518166733
ONEWEB-0715             
1 55176U 23004AN  26175.28466890 -.00000556  00000+0 -16051-2 0  9999
2 55176  87.8889  19.6555 0002240 102.6615 257.4764 13.11415488166794
ONEWEB-0716             
1 55177U 23004AP  26175.03127886  .00000084  00000+0  18351-3 0  9992
2 55177  87.9131   4.5065 0001602  89.7392 270.3923 13.17650316168489
ONEWEB-0717             
1 55178U 23004AQ  26175.24222422 -.00000047  00000+0 -15538-3 0  9993
2 55178  87.9145   4.4525 0002426  85.5657 274.5751 13.17648758168569
ONEWEB-0719             
1 55179U 23004AR  26175.25235012  .00000049  00000+0  93796-4 0  9997
2 55179  87.9139   4.4311 0001710  85.5535 274.5792 13.17649330168513
ONEWEB-0530             
1 55796U 23029A   26175.21107396  .00000071  00000+0  14292-3 0  9996
2 55796  87.9186 273.0688 0002231  89.0693 271.0696 13.20772009162078
